{"type": "FeatureCollection", "features": [ {"type": "Feature", "properties": {"norad_id": 35759, "name": "COSMOS 2251 DEB", "group": "cosmos-2251-debris", "lat": -17.22348529293756, "lon": 47.55014026143771, "alt_km": 725.4370697812737, "timestamp": "2025-12-09T09:46:48.042374+00:00", "meta": {"OBJECT_NAME": "COSMOS 2251 DEB", "OBJECT_ID": "1993-036ARD", "EPOCH": "2025-12-02T09:41:30.767712", "MEAN_MOTION": 14.648293, "ECCENTRICITY": 0.00766899, "INCLINATION": 74.0385, "RA_OF_ASC_NODE": 235.9215, "ARG_OF_PERICENTER": 356.5872, "MEAN_ANOMALY": 3.4761, "EPHEMERIS_TYPE": 0, "CLASSIFICATION_TYPE": "U", "NORAD_CAT_ID": 35759, "ELEMENT_SET_NO": 999, "REV_AT_EPOCH": 65984, "BSTAR": 0.00048578617, "MEAN_MOTION_DOT": 2.675e-05, "MEAN_MOTION_DDOT": 0}, "tle": {"line1": "1 35759U 93036ARD 25336.40382833  .00002675  00000+0  48579-3 0  9995", "line2": "2 35759  74.0385 235.9215 0076689 356.5872   3.4761 14.64829300659847"}}, "geometry": {"type": "Point", "coordinates": [47.55014026143771, -17.22348529293756]}}, {"type": "Feature", "properties": {"norad_id": 35771, "name": "COSMOS 2251 DEB", "group": "cosmos-2251-debris", "lat": 68.4382485392593, "lon": 90.24041474916277, "alt_km": 985.7763800088987, "timestamp": "2025-12-09T09:46:48.042385+00:00", "meta": {"OBJECT_NAME": "COSMOS 2251 DEB", "OBJECT_ID": "1993-036ARR", "EPOCH": "2025-12-01T22:51:30.244896", "MEAN_MOTION": 14.12926683, "ECCENTRICITY": 0.02319351, "INCLINATION": 74.1552, "RA_OF_ASC_NODE": 329.2812, "ARG_OF_PERICENTER": 270.0606, "MEAN_ANOMALY": 87.396, "EPHEMERIS_TYPE": 0, "CLASSIFICATION_TYPE": "U", "NORAD_CAT_ID": 35771, "ELEMENT_SET_NO": 999, "REV_AT_EPOCH": 82708, "BSTAR": 0.0067662276, "MEAN_MOTION_DOT": 0.00016281, "MEAN_MOTION_DDOT": 0}, "tle": {"line1": "1 35771U 93036ARR 25335.95243339  .00016281  00000+0  67662-2 0  9996", "line2": "2 35771  74.1552 329.2812 0231935 270.0606  87.3960 14.12926683827080"}}, "geometry": {"type": "Point", "coordinates": [90.24041474916277, 68.4382485392593]}}, {"type": "Feature", "properties": {"norad_id": 35773, "name": "COSMOS 2251 DEB", "group": "cosmos-2251-debris", "lat": 59.46507356179645, "lon": 138.12146421559922, "alt_km": 653.0116361230448, "timestamp": "2025-12-09T09:46:48.042396+00:00", "meta": {"OBJECT_NAME": "COSMOS 2251 DEB", "OBJECT_ID": "1993-036ART", "EPOCH": "2025-12-08T10:15:31.691232", "MEAN_MOTION": 14.62032242, "ECCENTRICITY": 0.00457513, "INCLINATION": 74.0078, "RA_OF_ASC_NODE": 349.0907, "ARG_OF_PERICENTER": 150.3799, "MEAN_ANOMALY": 209.9974, "EPHEMERIS_TYPE": 0, "CLASSIFICATION_TYPE": "U", "NORAD_CAT_ID": 35773, "ELEMENT_SET_NO": 999, "REV_AT_EPOCH": 86776, "BSTAR": 0.00087342579, "MEAN_MOTION_DOT": 4.42e-05, "MEAN_MOTION_DDOT": 0}, "tle": {"line1": "1 35773U 93036ART 25342.42745013  .00004420  00000+0  87343-3 0  9995", "line2": "2 35773  74.0078 349.0907 0045751 150.3799 209.9974 14.62032242867761"}}, "geometry": {"type": "Point", "coordinates": [138.12146421559922, 59.46507356179645]}}, {"type": "Feature", "properties": {"norad_id": 35777, "name": "COSMOS 2251 DEB", "group": "cosmos-2251-debris", "lat": -63.39100235207607, "lon": -67.48486148536809, "alt_km": 971.6126766549069, "timestamp": "2025-12-09T09:46:48.042406+00:00", "meta": {"OBJECT_NAME": "COSMOS 2251 DEB", "OBJECT_ID": "1993-036ARX", "EPOCH": "2025-12-08T17:08:57.000768", "MEAN_MOTION": 13.41299794, "ECCENTRICITY": 0.04525672, "INCLINATION": 73.7701, "RA_OF_ASC_NODE": 329.172, "ARG_OF_PERICENTER": 224.5904, "MEAN_ANOMALY": 317.2432, "EPHEMERIS_TYPE": 0, "CLASSIFICATION_TYPE": "U", "NORAD_CAT_ID": 35777, "ELEMENT_SET_NO": 999, "REV_AT_EPOCH": 79630, "BSTAR": 0.0009131429, "MEAN_MOTION_DOT": 9.04e-06, "MEAN_MOTION_DDOT": 0}, "tle": {"line1": "1 35777U 93036ARX 25342.71454862  .00000904  00000+0  91314-3 0  9996", "line2": "2 35777  73.7701 329.1720 0452567 224.5904 317.2432 13.41299794796301"}}, "geometry": {"type": "Point", "coordinates": [-67.48486148536809, -63.39100235207607]}}, {"type": "Feature", "properties": {"norad_id": 35784, "name": "COSMOS 2251 DEB", "group": "cosmos-2251-debris", "lat": -72.69469721366814, "lon": 29.22138653429764, "alt_km": 712.4413586569053, "timestamp": "2025-12-09T09:46:48.042417+00:00", "meta": {"OBJECT_NAME": "COSMOS 2251 DEB", "OBJECT_ID": "1993-036ASE", "EPOCH": "2025-12-08T14:17:36.853152", "MEAN_MOTION": 14.50025184, "ECCENTRICITY": 0.0042468, "INCLINATION": 74.0364, "RA_OF_ASC_NODE": 97.4864, "ARG_OF_PERICENTER": 229.9837, "MEAN_ANOMALY": 129.7594, "EPHEMERIS_TYPE": 0, "CLASSIFICATION_TYPE": "U", "NORAD_CAT_ID": 35784, "ELEMENT_SET_NO": 999, "REV_AT_EPOCH": 65646, "BSTAR": 0.00067524, "MEAN_MOTION_DOT": 2.619e-05, "MEAN_MOTION_DDOT": 0}, "tle": {"line1": "1 35784U 93036ASE 25342.59556543  .00002619  00000+0  67524-3 0  9990", "line2": "2 35784  74.0364  97.4864 0042468 229.9837 129.7594 14.50025184656469"}}, "geometry": {"type": "Point", "coordinates": [29.22138653429764, -72.69469721366814]}}, {"type": "Feature", "properties": {"norad_id": 35786, "name": "COSMOS 2251 DEB", "group": "cosmos-2251-debris", "lat": 1.009949078053423, "lon": 50.490365591655106, "alt_km": 700.1348498360549, "timestamp": "2025-12-09T09:46:48.042427+00:00", "meta": {"OBJECT_NAME": "COSMOS 2251 DEB", "OBJECT_ID": "1993-036ASG", "EPOCH": "2025-12-08T10:50:55.073184", "MEAN_MOTION": 14.66150541, "ECCENTRICITY": 0.00344381, "INCLINATION": 74.0142, "RA_OF_ASC_NODE": 52.0437, "ARG_OF_PERICENTER": 182.9439, "MEAN_ANOMALY": 177.1533, "EPHEMERIS_TYPE": 0, "CLASSIFICATION_TYPE": "U", "NORAD_CAT_ID": 35786, "ELEMENT_SET_NO": 999, "REV_AT_EPOCH": 73345, "BSTAR": 0.0013956322, "MEAN_MOTION_DOT": 7.718e-05, "MEAN_MOTION_DDOT": 0}, "tle": {"line1": "1 35786U 93036ASG 25342.45202631  .00007718  00000+0  13956-2 0  9997", "line2": "2 35786  74.0142  52.0437 0034438 182.9439 177.1533 14.66150541733450"}}, "geometry": {"type": "Point", "coordinates": [50.490365591655106, 1.009949078053423]}}, {"type": "Feature", "properties": {"norad_id": 35789, "name": "COSMOS 2251 DEB", "group": "cosmos-2251-debris", "lat": 53.20086085753986, "lon": -47.02068982371971, "alt_km": 736.0175070682244, "timestamp": "2025-12-09T09:46:48.042437+00:00", "meta": {"OBJECT_NAME": "COSMOS 2251 DEB", "OBJECT_ID": "1993-036ASK", "EPOCH": "2025-12-09T02:49:57.766944", "MEAN_MOTION": 14.35980614, "ECCENTRICITY": 0.0047176, "INCLINATION": 74.0397, "RA_OF_ASC_NODE": 291.0182, "ARG_OF_PERICENTER": 31.4029, "MEAN_ANOMALY": 328.9925, "EPHEMERIS_TYPE": 0, "CLASSIFICATION_TYPE": "U", "NORAD_CAT_ID": 35789, "ELEMENT_SET_NO": 999, "REV_AT_EPOCH": 61175, "BSTAR": 0.00021548, "MEAN_MOTION_DOT": 6.08e-06, "MEAN_MOTION_DDOT": 0}, "tle": {"line1": "1 35789U 93036ASK 25343.11802971  .00000608  00000+0  21548-3 0  9995", "line2": "2 35789  74.0397 291.0182 0047176  31.4029 328.9925 14.35980614611750"}}, "geometry": {"type": "Point", "coordinates": [-47.02068982371971, 53.20086085753986]}}, {"type": "Feature", "properties": {"norad_id": 35793, "name": "COSMOS 2251 DEB", "group": "cosmos-2251-debris", "lat": -40.18725903248938, "lon": 52.7445801279119, "alt_km": 642.1832428582793, "timestamp": "2025-12-09T09:46:48.042448+00:00", "meta": {"OBJECT_NAME": "COSMOS 2251 DEB", "OBJECT_ID": "1993-036ASP", "EPOCH": "2025-12-07T22:47:04.053408", "MEAN_MOTION": 14.78488646, "ECCENTRICITY": 0.00029281, "INCLINATION": 74.0407, "RA_OF_ASC_NODE": 69.5961, "ARG_OF_PERICENTER": 139.1114, "MEAN_ANOMALY": 340.8609, "EPHEMERIS_TYPE": 0, "CLASSIFICATION_TYPE": "U", "NORAD_CAT_ID": 35793, "ELEMENT_SET_NO": 999, "REV_AT_EPOCH": 65726, "BSTAR": 0.0023244582, "MEAN_MOTION_DOT": 0.0001698, "MEAN_MOTION_DDOT": 0}, "tle": {"line1": "1 35793U 93036ASP 25341.94935247  .00016980  00000+0  23245-2 0  9997", "line2": "2 35793  74.0407  69.5961 0002928 139.1114 340.8609 14.78488646657260"}}, "geometry": {"type": "Point", "coordinates": [52.7445801279119, -40.18725903248938]}}, {"type": "Feature", "properties": {"norad_id": 35824, "name": "COSMOS 2251 DEB", "group": "cosmos-2251-debris", "lat": -20.908490078372434, "lon": 48.161452107008934, "alt_km": 1113.0887507708421, "timestamp": "2025-12-09T09:46:48.042458+00:00", "meta": {"OBJECT_NAME": "COSMOS 2251 DEB", "OBJECT_ID": "1993-036ASW", "EPOCH": "2025-12-08T11:24:31.157568", "MEAN_MOTION": 13.883958, "ECCENTRICITY": 0.02494458, "INCLINATION": 73.8458, "RA_OF_ASC_NODE": 56.1203, "ARG_OF_PERICENTER": 143.0234, "MEAN_ANOMALY": 218.8382, "EPHEMERIS_TYPE": 0, "CLASSIFICATION_TYPE": "U", "NORAD_CAT_ID": 35824, "ELEMENT_SET_NO": 999, "REV_AT_EPOCH": 84168, "BSTAR": 0.0020429183, "MEAN_MOTION_DOT": 3.116e-05, "MEAN_MOTION_DDOT": 0}, "tle": {"line1": "1 35824U 93036ASW 25342.47536062  .00003116  00000+0  20429-2 0  9991", "line2": "2 35824  73.8458  56.1203 0249445 143.0234 218.8382 13.88395800841685"}}, "geometry": {"type": "Point", "coordinates": [48.161452107008934, -20.908490078372434]}}, {"type": "Feature", "properties": {"norad_id": 35825, "name": "COSMOS 2251 DEB", "group": "cosmos-2251-debris", "lat": -19.843228575205558, "lon": -25.984460283312565, "alt_km": 809.6680252222259, "timestamp": "2025-12-09T09:46:48.042469+00:00", "meta": {"OBJECT_NAME": "COSMOS 2251 DEB", "OBJECT_ID": "1993-036ASX", "EPOCH": "2025-12-06T17:43:31.257408", "MEAN_MOTION": 13.70908059, "ECCENTRICITY": 0.03529553, "INCLINATION": 74.1125, "RA_OF_ASC_NODE": 152.5025, "ARG_OF_PERICENTER": 249.6557, "MEAN_ANOMALY": 106.6316, "EPHEMERIS_TYPE": 0, "CLASSIFICATION_TYPE": "U", "NORAD_CAT_ID": 35825, "ELEMENT_SET_NO": 999, "REV_AT_EPOCH": 82426, "BSTAR": 0.0026115912, "MEAN_MOTION_DOT": 3.599e-05, "MEAN_MOTION_DDOT": 0}, "tle": {"line1": "1 35825U 93036ASX 25340.73855622  .00003599  00000+0  26116-2 0  9999", "line2": "2 35825  74.1125 152.5025 0352955 249.6557 106.6316 13.70908059824269"}}, "geometry": {"type": "Point", "coordinates": [-25.984460283312565, -19.843228575205558]}}]}